[{"OBJECT_NAME":"PROTOMETHEE","OBJECT_ID":"2023-174BT","EPOCH":"2026-03-09T23:28:08.029344","MEAN_MOTION":15.30202663,"ECCENTRICITY":0.00088339,"INCLINATION":97.3826,"RA_OF_ASC_NODE":147.9552,"ARG_OF_PERICENTER":148.5993,"MEAN_ANOMALY":211.5776,"EPHEMERIS_TYPE":0,"CLASSIFICATION_TYPE":"U","NORAD_CAT_ID":58321,"ELEMENT_SET_NO":999,"REV_AT_EPOCH":12979,"BSTAR":0.00015715731,"MEAN_MOTION_DOT":4.52e-5,"MEAN_MOTION_DDOT":0},{"OBJECT_NAME":"STARLINK-34766","OBJECT_ID":"2025-263W","EPOCH":"2026-03-09T04:02:26.075904","MEAN_MOTION":15.27571596,"ECCENTRICITY":0.00013711,"INCLINATION":43.0014,"RA_OF_ASC_NODE":353.2552,"ARG_OF_PERICENTER":268.5653,"MEAN_ANOMALY":91.5042,"EPHEMERIS_TYPE":0,"CLASSIFICATION_TYPE":"U","NORAD_CAT_ID":66505,"ELEMENT_SET_NO":999,"REV_AT_EPOCH":1882,"BSTAR":0.0012252695,"MEAN_MOTION_DOT":0.000336,"MEAN_MOTION_DDOT":0}]
